{
"type": "FeatureCollection",
"name": "sql_statement",
"crs": { "type": "name", "properties": { "name": "urn:ogc:def:crs:OGC:1.3:CRS84" } },
"features": [
{ "type": "Feature", "properties": { "GEO_Mountains_v3_ID": 157601, "Name": "Volcán Tacora", "Latitude": "-17.694114", "Longitude": "-69.772729", "Elevation": "5,047", "Country": "Chile", "Mountain_Range_GMBA_v2": "Cordillera Occidental", "Purpose": "Operational", "Type": null, "Operating_Organisation": "DGA Chile", "Site_Description_or_Data_Access": "https://dga.mop.gob.cl", "Contact_Email": "jorge.huenante@mop.gov.cl", "Variables_Measured": null, "Record_Start": null, "Record_End": null, "Frequency": null, "Methods_Protocols": null, "Instrumentation": null, "Open_Data": null, "Associated_Publications": null, "Local_Network": null, "Main_Network": "DGA (Chile)", "Comments": null }, "geometry": { "type": "Point", "coordinates": [ -69.772729, -17.694114 ] } },
{ "type": "Feature", "properties": { "GEO_Mountains_v3_ID": 157602, "Name": "Volcán Quimsachata", "Latitude": "-19.750725", "Longitude": "-68.786645", "Elevation": "5,076", "Country": "Chile", "Mountain_Range_GMBA_v2": "Cordillera Occidental", "Purpose": "Operational", "Type": null, "Operating_Organisation": "DGA Chile", "Site_Description_or_Data_Access": "https://dga.mop.gob.cl", "Contact_Email": "jorge.huenante@mop.gov.cl", "Variables_Measured": null, "Record_Start": null, "Record_End": null, "Frequency": null, "Methods_Protocols": null, "Instrumentation": null, "Open_Data": null, "Associated_Publications": null, "Local_Network": null, "Main_Network": "DGA (Chile)", "Comments": null }, "geometry": { "type": "Point", "coordinates": [ -68.786645, -19.750725 ] } },
{ "type": "Feature", "properties": { "GEO_Mountains_v3_ID": 157603, "Name": "Volcán Aucanquilcha", "Latitude": "-21.190562", "Longitude": "-68.452704", "Elevation": "5,087", "Country": "Chile", "Mountain_Range_GMBA_v2": "Cordillera Occidental", "Purpose": "Operational", "Type": null, "Operating_Organisation": "DGA Chile", "Site_Description_or_Data_Access": "https://dga.mop.gob.cl", "Contact_Email": "jorge.huenante@mop.gov.cl", "Variables_Measured": null, "Record_Start": null, "Record_End": null, "Frequency": null, "Methods_Protocols": null, "Instrumentation": null, "Open_Data": null, "Associated_Publications": null, "Local_Network": null, "Main_Network": "DGA (Chile)", "Comments": null }, "geometry": { "type": "Point", "coordinates": [ -68.452704, -21.190562 ] } },
{ "type": "Feature", "properties": { "GEO_Mountains_v3_ID": 157604, "Name": "Cerro Chajnantor Cumbre", "Latitude": "-22.987323", "Longitude": "-67.742293", "Elevation": "5,625", "Country": "Chile", "Mountain_Range_GMBA_v2": "Dry Andes", "Purpose": "Operational", "Type": null, "Operating_Organisation": "DGA Chile", "Site_Description_or_Data_Access": "https://dga.mop.gob.cl", "Contact_Email": "jorge.huenante@mop.gov.cl", "Variables_Measured": null, "Record_Start": null, "Record_End": null, "Frequency": null, "Methods_Protocols": null, "Instrumentation": null, "Open_Data": null, "Associated_Publications": null, "Local_Network": null, "Main_Network": "DGA (Chile)", "Comments": null }, "geometry": { "type": "Point", "coordinates": [ -67.742293, -22.987323 ] } },
{ "type": "Feature", "properties": { "GEO_Mountains_v3_ID": 157605, "Name": "Cerro Chajnantor Bajo", "Latitude": "-22.990578", "Longitude": "-67.729191", "Elevation": "5,086", "Country": "Chile", "Mountain_Range_GMBA_v2": "Dry Andes", "Purpose": "Operational", "Type": null, "Operating_Organisation": "DGA Chile", "Site_Description_or_Data_Access": "https://dga.mop.gob.cl", "Contact_Email": "jorge.huenante@mop.gov.cl", "Variables_Measured": null, "Record_Start": null, "Record_End": null, "Frequency": null, "Methods_Protocols": null, "Instrumentation": null, "Open_Data": null, "Associated_Publications": null, "Local_Network": null, "Main_Network": "DGA (Chile)", "Comments": null }, "geometry": { "type": "Point", "coordinates": [ -67.729191, -22.990578 ] } },
{ "type": "Feature", "properties": { "GEO_Mountains_v3_ID": 157606, "Name": "Volcán Ojos del Salado bajo Refugio Atacama 1", "Latitude": "-27.052056", "Longitude": "-68.535162", "Elevation": "5,201", "Country": "Chile", "Mountain_Range_GMBA_v2": "Dry Andes", "Purpose": "Operational", "Type": null, "Operating_Organisation": "DGA Chile", "Site_Description_or_Data_Access": "https://dga.mop.gob.cl", "Contact_Email": "jorge.huenante@mop.gov.cl", "Variables_Measured": null, "Record_Start": null, "Record_End": null, "Frequency": null, "Methods_Protocols": null, "Instrumentation": null, "Open_Data": null, "Associated_Publications": null, "Local_Network": null, "Main_Network": "DGA (Chile)", "Comments": null }, "geometry": { "type": "Point", "coordinates": [ -68.535162, -27.052056 ] } },
{ "type": "Feature", "properties": { "GEO_Mountains_v3_ID": 157643, "Name": "Las Melosas", "Latitude": "-33.863844", "Longitude": "-70.272635", "Elevation": "3,317", "Country": "Chile", "Mountain_Range_GMBA_v2": "Dry Andes", "Purpose": "Operational", "Type": null, "Operating_Organisation": "DGA Chile", "Site_Description_or_Data_Access": "https://dga.mop.gob.cl", "Contact_Email": "jorge.huenante@mop.gov.cl", "Variables_Measured": null, "Record_Start": null, "Record_End": null, "Frequency": null, "Methods_Protocols": null, "Instrumentation": null, "Open_Data": null, "Associated_Publications": null, "Local_Network": null, "Main_Network": "DGA (Chile)", "Comments": null }, "geometry": { "type": "Point", "coordinates": [ -70.272635, -33.863844 ] } },
{ "type": "Feature", "properties": { "GEO_Mountains_v3_ID": 157644, "Name": "Las Hualtatas", "Latitude": "-34.067763", "Longitude": "-70.108743", "Elevation": "2,020", "Country": "Chile", "Mountain_Range_GMBA_v2": "Dry Andes", "Purpose": "Operational", "Type": null, "Operating_Organisation": "DGA Chile", "Site_Description_or_Data_Access": "https://dga.mop.gob.cl", "Contact_Email": "jorge.huenante@mop.gov.cl", "Variables_Measured": null, "Record_Start": null, "Record_End": null, "Frequency": null, "Methods_Protocols": null, "Instrumentation": null, "Open_Data": null, "Associated_Publications": null, "Local_Network": null, "Main_Network": "DGA (Chile)", "Comments": null }, "geometry": { "type": "Point", "coordinates": [ -70.108743, -34.067763 ] } },
{ "type": "Feature", "properties": { "GEO_Mountains_v3_ID": 157645, "Name": "Quebrada La Negra", "Latitude": "-34.076559", "Longitude": "-70.231484", "Elevation": "3,555", "Country": "Chile", "Mountain_Range_GMBA_v2": "Dry Andes", "Purpose": "Operational", "Type": null, "Operating_Organisation": "DGA Chile", "Site_Description_or_Data_Access": "https://dga.mop.gob.cl", "Contact_Email": "jorge.huenante@mop.gov.cl", "Variables_Measured": null, "Record_Start": null, "Record_End": null, "Frequency": null, "Methods_Protocols": null, "Instrumentation": null, "Open_Data": null, "Associated_Publications": null, "Local_Network": null, "Main_Network": "DGA (Chile)", "Comments": null }, "geometry": { "type": "Point", "coordinates": [ -70.231484, -34.076559 ] } },
{ "type": "Feature", "properties": { "GEO_Mountains_v3_ID": 157646, "Name": "Codelco Nivométrica", "Latitude": "-34.20459", "Longitude": "-70.269204", "Elevation": "2,950", "Country": "Chile", "Mountain_Range_GMBA_v2": "Dry Andes", "Purpose": "Operational", "Type": null, "Operating_Organisation": "DGA Chile", "Site_Description_or_Data_Access": "https://dga.mop.gob.cl", "Contact_Email": "jorge.huenante@mop.gov.cl", "Variables_Measured": null, "Record_Start": null, "Record_End": null, "Frequency": null, "Methods_Protocols": null, "Instrumentation": null, "Open_Data": null, "Associated_Publications": null, "Local_Network": null, "Main_Network": "DGA (Chile)", "Comments": null }, "geometry": { "type": "Point", "coordinates": [ -70.269204, -34.20459 ] } },
{ "type": "Feature", "properties": { "GEO_Mountains_v3_ID": 157647, "Name": "Glaciar Cipreses", "Latitude": "-34.536194", "Longitude": "-70.417428", "Elevation": "1,880", "Country": "Chile", "Mountain_Range_GMBA_v2": "Dry Andes", "Purpose": "Operational", "Type": null, "Operating_Organisation": "DGA Chile", "Site_Description_or_Data_Access": "https://dga.mop.gob.cl", "Contact_Email": "jorge.huenante@mop.gov.cl", "Variables_Measured": null, "Record_Start": null, "Record_End": null, "Frequency": null, "Methods_Protocols": null, "Instrumentation": null, "Open_Data": null, "Associated_Publications": null, "Local_Network": null, "Main_Network": "DGA (Chile)", "Comments": null }, "geometry": { "type": "Point", "coordinates": [ -70.417428, -34.536194 ] } },
{ "type": "Feature", "properties": { "GEO_Mountains_v3_ID": 157648, "Name": "Laguna Los Cristales", "Latitude": "-34.561101", "Longitude": "-70.509799", "Elevation": "2,357", "Country": "Chile", "Mountain_Range_GMBA_v2": "Dry Andes", "Purpose": "Operational", "Type": null, "Operating_Organisation": "DGA Chile", "Site_Description_or_Data_Access": "https://dga.mop.gob.cl", "Contact_Email": "jorge.huenante@mop.gov.cl", "Variables_Measured": null, "Record_Start": null, "Record_End": null, "Frequency": null, "Methods_Protocols": null, "Instrumentation": null, "Open_Data": null, "Associated_Publications": null, "Local_Network": null, "Main_Network": "DGA (Chile)", "Comments": null }, "geometry": { "type": "Point", "coordinates": [ -70.509799, -34.561101 ] } },
{ "type": "Feature", "properties": { "GEO_Mountains_v3_ID": 157649, "Name": "Glaciar Cortaderal", "Latitude": "-34.66082", "Longitude": "-70.256161", "Elevation": "3,156", "Country": "Chile", "Mountain_Range_GMBA_v2": "Dry Andes", "Purpose": "Operational", "Type": null, "Operating_Organisation": "DGA Chile", "Site_Description_or_Data_Access": "https://dga.mop.gob.cl", "Contact_Email": "jorge.huenante@mop.gov.cl", "Variables_Measured": null, "Record_Start": null, "Record_End": null, "Frequency": null, "Methods_Protocols": null, "Instrumentation": null, "Open_Data": null, "Associated_Publications": null, "Local_Network": null, "Main_Network": "DGA (Chile)", "Comments": null }, "geometry": { "type": "Point", "coordinates": [ -70.256161, -34.66082 ] } },
{ "type": "Feature", "properties": { "GEO_Mountains_v3_ID": 157650, "Name": "Glaciar Universidad en Río San Andrés", "Latitude": "-34.71874", "Longitude": "-70.35923", "Elevation": "2,436", "Country": "Chile", "Mountain_Range_GMBA_v2": "Dry Andes", "Purpose": "Operational", "Type": null, "Operating_Organisation": "DGA Chile", "Site_Description_or_Data_Access": "https://dga.mop.gob.cl", "Contact_Email": "jorge.huenante@mop.gov.cl", "Variables_Measured": null, "Record_Start": null, "Record_End": null, "Frequency": null, "Methods_Protocols": null, "Instrumentation": null, "Open_Data": null, "Associated_Publications": null, "Local_Network": null, "Main_Network": "DGA (Chile)", "Comments": null }, "geometry": { "type": "Point", "coordinates": [ -70.35923, -34.71874 ] } },
{ "type": "Feature", "properties": { "GEO_Mountains_v3_ID": 157651, "Name": "Termas del Flaco", "Latitude": "-34.891062", "Longitude": "-70.329725", "Elevation": "2,665", "Country": "Chile", "Mountain_Range_GMBA_v2": "Dry Andes", "Purpose": "Operational", "Type": null, "Operating_Organisation": "DGA Chile", "Site_Description_or_Data_Access": "https://dga.mop.gob.cl", "Contact_Email": "jorge.huenante@mop.gov.cl", "Variables_Measured": null, "Record_Start": null, "Record_End": null, "Frequency": null, "Methods_Protocols": null, "Instrumentation": null, "Open_Data": null, "Associated_Publications": null, "Local_Network": null, "Main_Network": "DGA (Chile)", "Comments": null }, "geometry": { "type": "Point", "coordinates": [ -70.329725, -34.891062 ] } },
{ "type": "Feature", "properties": { "GEO_Mountains_v3_ID": 157652, "Name": "Paso Vergara", "Latitude": "-35.1947", "Longitude": "-70.511404", "Elevation": "2,602", "Country": "Chile", "Mountain_Range_GMBA_v2": "Dry Andes", "Purpose": "Operational", "Type": null, "Operating_Organisation": "DGA Chile", "Site_Description_or_Data_Access": "https://dga.mop.gob.cl", "Contact_Email": "jorge.huenante@mop.gov.cl", "Variables_Measured": null, "Record_Start": null, "Record_End": null, "Frequency": null, "Methods_Protocols": null, "Instrumentation": null, "Open_Data": null, "Associated_Publications": null, "Local_Network": null, "Main_Network": "DGA (Chile)", "Comments": null }, "geometry": { "type": "Point", "coordinates": [ -70.511404, -35.1947 ] } },
{ "type": "Feature", "properties": { "GEO_Mountains_v3_ID": 157653, "Name": "Volcán Azufre", "Latitude": "-35.311167", "Longitude": "-70.584083", "Elevation": "3,154", "Country": "Chile", "Mountain_Range_GMBA_v2": "Dry Andes", "Purpose": "Operational", "Type": null, "Operating_Organisation": "DGA Chile", "Site_Description_or_Data_Access": "https://dga.mop.gob.cl", "Contact_Email": "jorge.huenante@mop.gov.cl", "Variables_Measured": null, "Record_Start": null, "Record_End": null, "Frequency": null, "Methods_Protocols": null, "Instrumentation": null, "Open_Data": null, "Associated_Publications": null, "Local_Network": null, "Main_Network": "DGA (Chile)", "Comments": null }, "geometry": { "type": "Point", "coordinates": [ -70.584083, -35.311167 ] } },
{ "type": "Feature", "properties": { "GEO_Mountains_v3_ID": 157654, "Name": "Lo Aguirre", "Latitude": "-35.970735", "Longitude": "-70.57144", "Elevation": "1,989", "Country": "Chile", "Mountain_Range_GMBA_v2": "Dry Andes", "Purpose": "Operational", "Type": null, "Operating_Organisation": "DGA Chile", "Site_Description_or_Data_Access": "https://dga.mop.gob.cl", "Contact_Email": "jorge.huenante@mop.gov.cl", "Variables_Measured": null, "Record_Start": null, "Record_End": null, "Frequency": null, "Methods_Protocols": null, "Instrumentation": null, "Open_Data": null, "Associated_Publications": null, "Local_Network": null, "Main_Network": "DGA (Chile)", "Comments": null }, "geometry": { "type": "Point", "coordinates": [ -70.57144, -35.970735 ] } },
{ "type": "Feature", "properties": { "GEO_Mountains_v3_ID": 157655, "Name": "Los Condores", "Latitude": "-36.009161", "Longitude": "-70.547537", "Elevation": "2,439", "Country": "Chile", "Mountain_Range_GMBA_v2": "Dry Andes", "Purpose": "Operational", "Type": null, "Operating_Organisation": "DGA Chile", "Site_Description_or_Data_Access": "https://dga.mop.gob.cl", "Contact_Email": "jorge.huenante@mop.gov.cl", "Variables_Measured": null, "Record_Start": null, "Record_End": null, "Frequency": null, "Methods_Protocols": null, "Instrumentation": null, "Open_Data": null, "Associated_Publications": null, "Local_Network": null, "Main_Network": "DGA (Chile)", "Comments": null }, "geometry": { "type": "Point", "coordinates": [ -70.547537, -36.009161 ] } },
{ "type": "Feature", "properties": { "GEO_Mountains_v3_ID": 157656, "Name": "Nevado Longaví", "Latitude": "-36.234171", "Longitude": "-71.143339", "Elevation": "1,977", "Country": "Chile", "Mountain_Range_GMBA_v2": "Patagonian Andes", "Purpose": "Operational", "Type": null, "Operating_Organisation": "DGA Chile", "Site_Description_or_Data_Access": "https://dga.mop.gob.cl", "Contact_Email": "jorge.huenante@mop.gov.cl", "Variables_Measured": null, "Record_Start": null, "Record_End": null, "Frequency": null, "Methods_Protocols": null, "Instrumentation": null, "Open_Data": null, "Associated_Publications": null, "Local_Network": null, "Main_Network": "DGA (Chile)", "Comments": null }, "geometry": { "type": "Point", "coordinates": [ -71.143339, -36.234171 ] } },
{ "type": "Feature", "properties": { "GEO_Mountains_v3_ID": 157657, "Name": "Nevados de Chillán", "Latitude": "-36.847194", "Longitude": "-71.416082", "Elevation": "2,546", "Country": "Chile", "Mountain_Range_GMBA_v2": "Patagonian Andes", "Purpose": "Operational", "Type": null, "Operating_Organisation": "DGA Chile", "Site_Description_or_Data_Access": "https://dga.mop.gob.cl", "Contact_Email": "jorge.huenante@mop.gov.cl", "Variables_Measured": null, "Record_Start": null, "Record_End": null, "Frequency": null, "Methods_Protocols": null, "Instrumentation": null, "Open_Data": null, "Associated_Publications": null, "Local_Network": null, "Main_Network": "DGA (Chile)", "Comments": null }, "geometry": { "type": "Point", "coordinates": [ -71.416082, -36.847194 ] } },
{ "type": "Feature", "properties": { "GEO_Mountains_v3_ID": 157658, "Name": "Volcán Chillán", "Latitude": "-36.89362", "Longitude": "-71.411946", "Elevation": "2,078", "Country": "Chile", "Mountain_Range_GMBA_v2": "Patagonian Andes", "Purpose": "Operational", "Type": null, "Operating_Organisation": "DGA Chile", "Site_Description_or_Data_Access": "https://dga.mop.gob.cl", "Contact_Email": "jorge.huenante@mop.gov.cl", "Variables_Measured": null, "Record_Start": null, "Record_End": null, "Frequency": null, "Methods_Protocols": null, "Instrumentation": null, "Open_Data": null, "Associated_Publications": null, "Local_Network": null, "Main_Network": "DGA (Chile)", "Comments": null }, "geometry": { "type": "Point", "coordinates": [ -71.411946, -36.89362 ] } },
{ "type": "Feature", "properties": { "GEO_Mountains_v3_ID": 157659, "Name": "Alto Mallines", "Latitude": "-37.159006", "Longitude": "-71.242416", "Elevation": "1,784", "Country": "Chile", "Mountain_Range_GMBA_v2": "Patagonian Andes", "Purpose": "Operational", "Type": null, "Operating_Organisation": "DGA Chile", "Site_Description_or_Data_Access": "https://dga.mop.gob.cl", "Contact_Email": "jorge.huenante@mop.gov.cl", "Variables_Measured": null, "Record_Start": null, "Record_End": null, "Frequency": null, "Methods_Protocols": null, "Instrumentation": null, "Open_Data": null, "Associated_Publications": null, "Local_Network": null, "Main_Network": "DGA (Chile)", "Comments": null }, "geometry": { "type": "Point", "coordinates": [ -71.242416, -37.159006 ] } },
{ "type": "Feature", "properties": { "GEO_Mountains_v3_ID": 157619, "Name": "Nacimiento del Sobrante", "Latitude": "-32.18834", "Longitude": "-70.483064", "Elevation": "3,143", "Country": "Chile", "Mountain_Range_GMBA_v2": "Dry Andes", "Purpose": "Operational", "Type": null, "Operating_Organisation": "DGA Chile", "Site_Description_or_Data_Access": "https://dga.mop.gob.cl", "Contact_Email": "jorge.huenante@mop.gov.cl", "Variables_Measured": null, "Record_Start": null, "Record_End": null, "Frequency": null, "Methods_Protocols": null, "Instrumentation": null, "Open_Data": null, "Associated_Publications": null, "Local_Network": null, "Main_Network": "DGA (Chile)", "Comments": null }, "geometry": { "type": "Point", "coordinates": [ -70.483064, -32.18834 ] } },
{ "type": "Feature", "properties": { "GEO_Mountains_v3_ID": 157620, "Name": "Portillo", "Latitude": "-32.844446", "Longitude": "-70.110835", "Elevation": "3,032", "Country": "Chile", "Mountain_Range_GMBA_v2": "Dry Andes", "Purpose": "Operational", "Type": null, "Operating_Organisation": "DGA Chile", "Site_Description_or_Data_Access": "https://dga.mop.gob.cl", "Contact_Email": "jorge.huenante@mop.gov.cl", "Variables_Measured": null, "Record_Start": null, "Record_End": null, "Frequency": null, "Methods_Protocols": null, "Instrumentation": null, "Open_Data": null, "Associated_Publications": null, "Local_Network": null, "Main_Network": "DGA (Chile)", "Comments": null }, "geometry": { "type": "Point", "coordinates": [ -70.110835, -32.844446 ] } },
{ "type": "Feature", "properties": { "GEO_Mountains_v3_ID": 157621, "Name": "Glaciar León Negro (ex Monos de Agua)", "Latitude": "-32.993619", "Longitude": "-70.028337", "Elevation": "4,350", "Country": "Chile", "Mountain_Range_GMBA_v2": "Dry Andes", "Purpose": "Operational", "Type": null, "Operating_Organisation": "DGA Chile", "Site_Description_or_Data_Access": "https://dga.mop.gob.cl", "Contact_Email": "jorge.huenante@mop.gov.cl", "Variables_Measured": null, "Record_Start": null, "Record_End": null, "Frequency": null, "Methods_Protocols": null, "Instrumentation": null, "Open_Data": null, "Associated_Publications": null, "Local_Network": null, "Main_Network": "DGA (Chile)", "Comments": null }, "geometry": { "type": "Point", "coordinates": [ -70.028337, -32.993619 ] } },
{ "type": "Feature", "properties": { "GEO_Mountains_v3_ID": 157622, "Name": "Glaciar Juncal Sur", "Latitude": "-33.117617", "Longitude": "-70.111871", "Elevation": "4,035", "Country": "Chile", "Mountain_Range_GMBA_v2": "Dry Andes", "Purpose": "Operational", "Type": null, "Operating_Organisation": "DGA Chile", "Site_Description_or_Data_Access": "https://dga.mop.gob.cl", "Contact_Email": "jorge.huenante@mop.gov.cl", "Variables_Measured": null, "Record_Start": null, "Record_End": null, "Frequency": null, "Methods_Protocols": null, "Instrumentation": null, "Open_Data": null, "Associated_Publications": null, "Local_Network": null, "Main_Network": "DGA (Chile)", "Comments": null }, "geometry": { "type": "Point", "coordinates": [ -70.111871, -33.117617 ] } },
{ "type": "Feature", "properties": { "GEO_Mountains_v3_ID": 157623, "Name": "Glaciar Olivares Gamma", "Latitude": "-33.156389", "Longitude": "-70.152786", "Elevation": "3,628", "Country": "Chile", "Mountain_Range_GMBA_v2": "Dry Andes", "Purpose": "Operational", "Type": null, "Operating_Organisation": "DGA Chile", "Site_Description_or_Data_Access": "https://dga.mop.gob.cl", "Contact_Email": "jorge.huenante@mop.gov.cl", "Variables_Measured": null, "Record_Start": null, "Record_End": null, "Frequency": null, "Methods_Protocols": null, "Instrumentation": null, "Open_Data": null, "Associated_Publications": null, "Local_Network": null, "Main_Network": "DGA (Chile)", "Comments": null }, "geometry": { "type": "Point", "coordinates": [ -70.152786, -33.156389 ] } },
{ "type": "Feature", "properties": { "GEO_Mountains_v3_ID": 157624, "Name": "Glaciar Olivares Alfa", "Latitude": "-33.178713", "Longitude": "-70.218075", "Elevation": "4,230", "Country": "Chile", "Mountain_Range_GMBA_v2": "Dry Andes", "Purpose": "Operational", "Type": null, "Operating_Organisation": "DGA Chile", "Site_Description_or_Data_Access": "https://dga.mop.gob.cl", "Contact_Email": "jorge.huenante@mop.gov.cl", "Variables_Measured": null, "Record_Start": null, "Record_End": null, "Frequency": null, "Methods_Protocols": null, "Instrumentation": null, "Open_Data": null, "Associated_Publications": null, "Local_Network": null, "Main_Network": "DGA (Chile)", "Comments": null }, "geometry": { "type": "Point", "coordinates": [ -70.218075, -33.178713 ] } },
{ "type": "Feature", "properties": { "GEO_Mountains_v3_ID": 157625, "Name": "Valle Río Olivares", "Latitude": "-33.190988", "Longitude": "-70.114053", "Elevation": "2,786", "Country": "Chile", "Mountain_Range_GMBA_v2": "Dry Andes", "Purpose": "Operational", "Type": null, "Operating_Organisation": "DGA Chile", "Site_Description_or_Data_Access": "https://dga.mop.gob.cl", "Contact_Email": "jorge.huenante@mop.gov.cl", "Variables_Measured": null, "Record_Start": null, "Record_End": null, "Frequency": null, "Methods_Protocols": null, "Instrumentation": null, "Open_Data": null, "Associated_Publications": null, "Local_Network": null, "Main_Network": "DGA (Chile)", "Comments": null }, "geometry": { "type": "Point", "coordinates": [ -70.114053, -33.190988 ] } },
{ "type": "Feature", "properties": { "GEO_Mountains_v3_ID": 157626, "Name": "Estero Yerba Loca en Piedra Carvajal", "Latitude": "-33.221724", "Longitude": "-70.274063", "Elevation": "3,253", "Country": "Chile", "Mountain_Range_GMBA_v2": "Dry Andes", "Purpose": "Operational", "Type": null, "Operating_Organisation": "DGA Chile", "Site_Description_or_Data_Access": "https://dga.mop.gob.cl", "Contact_Email": "jorge.huenante@mop.gov.cl", "Variables_Measured": null, "Record_Start": null, "Record_End": null, "Frequency": null, "Methods_Protocols": null, "Instrumentation": null, "Open_Data": null, "Associated_Publications": null, "Local_Network": null, "Main_Network": "DGA (Chile)", "Comments": null }, "geometry": { "type": "Point", "coordinates": [ -70.274063, -33.221724 ] } },
{ "type": "Feature", "properties": { "GEO_Mountains_v3_ID": 157627, "Name": "La Parva", "Latitude": "-33.330524", "Longitude": "-70.297315", "Elevation": "2,703", "Country": "Chile", "Mountain_Range_GMBA_v2": "Dry Andes", "Purpose": "Operational", "Type": null, "Operating_Organisation": "DGA Chile", "Site_Description_or_Data_Access": "https://dga.mop.gob.cl", "Contact_Email": "jorge.huenante@mop.gov.cl", "Variables_Measured": null, "Record_Start": null, "Record_End": null, "Frequency": null, "Methods_Protocols": null, "Instrumentation": null, "Open_Data": null, "Associated_Publications": null, "Local_Network": null, "Main_Network": "DGA (Chile)", "Comments": null }, "geometry": { "type": "Point", "coordinates": [ -70.297315, -33.330524 ] } },
{ "type": "Feature", "properties": { "GEO_Mountains_v3_ID": 157628, "Name": "Volcán Tupungato", "Latitude": "-33.353002", "Longitude": "-69.770696", "Elevation": "6,505", "Country": "Chile", "Mountain_Range_GMBA_v2": "Dry Andes", "Purpose": "Operational", "Type": null, "Operating_Organisation": "DGA Chile", "Site_Description_or_Data_Access": "https://dga.mop.gob.cl", "Contact_Email": "jorge.huenante@mop.gov.cl", "Variables_Measured": null, "Record_Start": null, "Record_End": null, "Frequency": null, "Methods_Protocols": null, "Instrumentation": null, "Open_Data": null, "Associated_Publications": null, "Local_Network": null, "Main_Network": "DGA (Chile)", "Comments": null }, "geometry": { "type": "Point", "coordinates": [ -69.770696, -33.353002 ] } },
{ "type": "Feature", "properties": { "GEO_Mountains_v3_ID": 157629, "Name": "Glaciar Tupungatito Bajo", "Latitude": "-33.385841", "Longitude": "-69.854728", "Elevation": "4,425", "Country": "Chile", "Mountain_Range_GMBA_v2": "Dry Andes", "Purpose": "Operational", "Type": null, "Operating_Organisation": "DGA Chile", "Site_Description_or_Data_Access": "https://dga.mop.gob.cl", "Contact_Email": "jorge.huenante@mop.gov.cl", "Variables_Measured": null, "Record_Start": null, "Record_End": null, "Frequency": null, "Methods_Protocols": null, "Instrumentation": null, "Open_Data": null, "Associated_Publications": null, "Local_Network": null, "Main_Network": "DGA (Chile)", "Comments": null }, "geometry": { "type": "Point", "coordinates": [ -69.854728, -33.385841 ] } },
{ "type": "Feature", "properties": { "GEO_Mountains_v3_ID": 157633, "Name": "Portezuelo Glaciar Echaurren Norte", "Latitude": "-33.576522", "Longitude": "-70.12884", "Elevation": "3,847", "Country": "Chile", "Mountain_Range_GMBA_v2": "Dry Andes", "Purpose": "Operational", "Type": null, "Operating_Organisation": "DGA Chile", "Site_Description_or_Data_Access": "https://dga.mop.gob.cl", "Contact_Email": "jorge.huenante@mop.gov.cl", "Variables_Measured": null, "Record_Start": null, "Record_End": null, "Frequency": null, "Methods_Protocols": null, "Instrumentation": null, "Open_Data": null, "Associated_Publications": null, "Local_Network": null, "Main_Network": "DGA (Chile)", "Comments": null }, "geometry": { "type": "Point", "coordinates": [ -70.12884, -33.576522 ] } },
{ "type": "Feature", "properties": { "GEO_Mountains_v3_ID": 157634, "Name": "Glaciar Echaurren Norte", "Latitude": "-33.580514", "Longitude": "-70.134139", "Elevation": "3,715", "Country": "Chile", "Mountain_Range_GMBA_v2": "Dry Andes", "Purpose": "Operational", "Type": null, "Operating_Organisation": "DGA Chile", "Site_Description_or_Data_Access": "https://dga.mop.gob.cl", "Contact_Email": "jorge.huenante@mop.gov.cl", "Variables_Measured": null, "Record_Start": null, "Record_End": null, "Frequency": null, "Methods_Protocols": null, "Instrumentation": null, "Open_Data": null, "Associated_Publications": null, "Local_Network": null, "Main_Network": "DGA (Chile)", "Comments": null }, "geometry": { "type": "Point", "coordinates": [ -70.134139, -33.580514 ] } },
{ "type": "Feature", "properties": { "GEO_Mountains_v3_ID": 157635, "Name": "Glaciar Pirámide", "Latitude": "-33.589613", "Longitude": "-69.890679", "Elevation": "3,450", "Country": "Chile", "Mountain_Range_GMBA_v2": "Dry Andes", "Purpose": "Operational", "Type": null, "Operating_Organisation": "DGA Chile", "Site_Description_or_Data_Access": "https://dga.mop.gob.cl", "Contact_Email": "jorge.huenante@mop.gov.cl", "Variables_Measured": null, "Record_Start": null, "Record_End": null, "Frequency": null, "Methods_Protocols": null, "Instrumentation": null, "Open_Data": null, "Associated_Publications": null, "Local_Network": null, "Main_Network": "DGA (Chile)", "Comments": null }, "geometry": { "type": "Point", "coordinates": [ -69.890679, -33.589613 ] } },
{ "type": "Feature", "properties": { "GEO_Mountains_v3_ID": 157636, "Name": "Estero Echaurren Norte", "Latitude": "-33.590562", "Longitude": "-70.117136", "Elevation": "2,985", "Country": "Chile", "Mountain_Range_GMBA_v2": "Dry Andes", "Purpose": "Operational", "Type": null, "Operating_Organisation": "DGA Chile", "Site_Description_or_Data_Access": "https://dga.mop.gob.cl", "Contact_Email": "jorge.huenante@mop.gov.cl", "Variables_Measured": null, "Record_Start": null, "Record_End": null, "Frequency": null, "Methods_Protocols": null, "Instrumentation": null, "Open_Data": null, "Associated_Publications": null, "Local_Network": null, "Main_Network": "DGA (Chile)", "Comments": null }, "geometry": { "type": "Point", "coordinates": [ -70.117136, -33.590562 ] } },
{ "type": "Feature", "properties": { "GEO_Mountains_v3_ID": 157607, "Name": "Volcán Ojos del Salado bajo Refugio Atacama 2", "Latitude": "-27.052092", "Longitude": "-68.535233", "Elevation": "5,230", "Country": "Chile", "Mountain_Range_GMBA_v2": "Dry Andes", "Purpose": "Operational", "Type": null, "Operating_Organisation": "DGA Chile", "Site_Description_or_Data_Access": "https://dga.mop.gob.cl", "Contact_Email": "jorge.huenante@mop.gov.cl", "Variables_Measured": null, "Record_Start": null, "Record_End": null, "Frequency": null, "Methods_Protocols": null, "Instrumentation": null, "Open_Data": null, "Associated_Publications": null, "Local_Network": null, "Main_Network": "DGA (Chile)", "Comments": null }, "geometry": { "type": "Point", "coordinates": [ -68.535233, -27.052092 ] } },
{ "type": "Feature", "properties": { "GEO_Mountains_v3_ID": 157608, "Name": "Volcán Ojos del Salado en Refugio Tejos", "Latitude": "-27.086923", "Longitude": "-68.537742", "Elevation": "5,804", "Country": "Chile", "Mountain_Range_GMBA_v2": "Dry Andes", "Purpose": "Operational", "Type": null, "Operating_Organisation": "DGA Chile", "Site_Description_or_Data_Access": "https://dga.mop.gob.cl", "Contact_Email": "jorge.huenante@mop.gov.cl", "Variables_Measured": null, "Record_Start": null, "Record_End": null, "Frequency": null, "Methods_Protocols": null, "Instrumentation": null, "Open_Data": null, "Associated_Publications": null, "Local_Network": null, "Main_Network": "DGA (Chile)", "Comments": null }, "geometry": { "type": "Point", "coordinates": [ -68.537742, -27.086923 ] } },
{ "type": "Feature", "properties": { "GEO_Mountains_v3_ID": 157609, "Name": "Volcán Ojos del Salado en Glaciares Occidentales", "Latitude": "-27.106179", "Longitude": "-68.554026", "Elevation": "6,392", "Country": "Chile", "Mountain_Range_GMBA_v2": "Dry Andes", "Purpose": "Operational", "Type": null, "Operating_Organisation": "DGA Chile", "Site_Description_or_Data_Access": "https://dga.mop.gob.cl", "Contact_Email": "jorge.huenante@mop.gov.cl", "Variables_Measured": null, "Record_Start": null, "Record_End": null, "Frequency": null, "Methods_Protocols": null, "Instrumentation": null, "Open_Data": null, "Associated_Publications": null, "Local_Network": null, "Main_Network": "DGA (Chile)", "Comments": null }, "geometry": { "type": "Point", "coordinates": [ -68.554026, -27.106179 ] } },
{ "type": "Feature", "properties": { "GEO_Mountains_v3_ID": 157610, "Name": "Volcán Ojos del Salado en Glaciar Somital", "Latitude": "-27.107385", "Longitude": "-68.544458", "Elevation": "6,730", "Country": "Chile", "Mountain_Range_GMBA_v2": "Dry Andes", "Purpose": "Operational", "Type": null, "Operating_Organisation": "DGA Chile", "Site_Description_or_Data_Access": "https://dga.mop.gob.cl", "Contact_Email": "jorge.huenante@mop.gov.cl", "Variables_Measured": null, "Record_Start": null, "Record_End": null, "Frequency": null, "Methods_Protocols": null, "Instrumentation": null, "Open_Data": null, "Associated_Publications": null, "Local_Network": null, "Main_Network": "DGA (Chile)", "Comments": null }, "geometry": { "type": "Point", "coordinates": [ -68.544458, -27.107385 ] } },
{ "type": "Feature", "properties": { "GEO_Mountains_v3_ID": 157611, "Name": "Glaciar Maranceles", "Latitude": "-28.457016", "Longitude": "-69.723143", "Elevation": "3,985", "Country": "Chile", "Mountain_Range_GMBA_v2": "Dry Andes", "Purpose": "Operational", "Type": null, "Operating_Organisation": "DGA Chile", "Site_Description_or_Data_Access": "https://dga.mop.gob.cl", "Contact_Email": "jorge.huenante@mop.gov.cl", "Variables_Measured": null, "Record_Start": null, "Record_End": null, "Frequency": null, "Methods_Protocols": null, "Instrumentation": null, "Open_Data": null, "Associated_Publications": null, "Local_Network": null, "Main_Network": "DGA (Chile)", "Comments": null }, "geometry": { "type": "Point", "coordinates": [ -69.723143, -28.457016 ] } },
{ "type": "Feature", "properties": { "GEO_Mountains_v3_ID": 157612, "Name": "Glaciar Tapado en Los Corrales", "Latitude": "-30.155253", "Longitude": "-69.882988", "Elevation": "4,065", "Country": "Chile", "Mountain_Range_GMBA_v2": "Dry Andes", "Purpose": "Operational", "Type": null, "Operating_Organisation": "DGA Chile", "Site_Description_or_Data_Access": "https://dga.mop.gob.cl", "Contact_Email": "jorge.huenante@mop.gov.cl", "Variables_Measured": null, "Record_Start": null, "Record_End": null, "Frequency": null, "Methods_Protocols": null, "Instrumentation": null, "Open_Data": null, "Associated_Publications": null, "Local_Network": null, "Main_Network": "DGA (Chile)", "Comments": null }, "geometry": { "type": "Point", "coordinates": [ -69.882988, -30.155253 ] } },
{ "type": "Feature", "properties": { "GEO_Mountains_v3_ID": 157613, "Name": "Estero Los Corrales en Glaciar Tapado", "Latitude": "-30.15613", "Longitude": "-69.880058", "Elevation": "4,000", "Country": "Chile", "Mountain_Range_GMBA_v2": "Dry Andes", "Purpose": "Operational", "Type": null, "Operating_Organisation": "DGA Chile", "Site_Description_or_Data_Access": "https://dga.mop.gob.cl", "Contact_Email": "jorge.huenante@mop.gov.cl", "Variables_Measured": null, "Record_Start": null, "Record_End": null, "Frequency": null, "Methods_Protocols": null, "Instrumentation": null, "Open_Data": null, "Associated_Publications": null, "Local_Network": null, "Main_Network": "DGA (Chile)", "Comments": null }, "geometry": { "type": "Point", "coordinates": [ -69.880058, -30.15613 ] } },
{ "type": "Feature", "properties": { "GEO_Mountains_v3_ID": 157614, "Name": "Paso Agua Negra", "Latitude": "-30.175433", "Longitude": "-69.831446", "Elevation": "4,735", "Country": "Chile", "Mountain_Range_GMBA_v2": "Dry Andes", "Purpose": "Operational", "Type": null, "Operating_Organisation": "DGA Chile", "Site_Description_or_Data_Access": "https://dga.mop.gob.cl", "Contact_Email": "jorge.huenante@mop.gov.cl", "Variables_Measured": null, "Record_Start": null, "Record_End": null, "Frequency": null, "Methods_Protocols": null, "Instrumentation": null, "Open_Data": null, "Associated_Publications": null, "Local_Network": null, "Main_Network": "DGA (Chile)", "Comments": null }, "geometry": { "type": "Point", "coordinates": [ -69.831446, -30.175433 ] } },
{ "type": "Feature", "properties": { "GEO_Mountains_v3_ID": 157615, "Name": "Cerro Olivares", "Latitude": "-30.258059", "Longitude": "-69.940287", "Elevation": "3,566", "Country": "Chile", "Mountain_Range_GMBA_v2": "Dry Andes", "Purpose": "Operational", "Type": null, "Operating_Organisation": "DGA Chile", "Site_Description_or_Data_Access": "https://dga.mop.gob.cl", "Contact_Email": "jorge.huenante@mop.gov.cl", "Variables_Measured": null, "Record_Start": null, "Record_End": null, "Frequency": null, "Methods_Protocols": null, "Instrumentation": null, "Open_Data": null, "Associated_Publications": null, "Local_Network": null, "Main_Network": "DGA (Chile)", "Comments": null }, "geometry": { "type": "Point", "coordinates": [ -69.940287, -30.258059 ] } },
{ "type": "Feature", "properties": { "GEO_Mountains_v3_ID": 157616, "Name": "Quebrada Larga", "Latitude": "-30.72528", "Longitude": "-70.291672", "Elevation": "3,550", "Country": "Chile", "Mountain_Range_GMBA_v2": "Dry Andes", "Purpose": "Operational", "Type": null, "Operating_Organisation": "DGA Chile", "Site_Description_or_Data_Access": "https://dga.mop.gob.cl", "Contact_Email": "jorge.huenante@mop.gov.cl", "Variables_Measured": null, "Record_Start": null, "Record_End": null, "Frequency": null, "Methods_Protocols": null, "Instrumentation": null, "Open_Data": null, "Associated_Publications": null, "Local_Network": null, "Main_Network": "DGA (Chile)", "Comments": null }, "geometry": { "type": "Point", "coordinates": [ -70.291672, -30.72528 ] } },
{ "type": "Feature", "properties": { "GEO_Mountains_v3_ID": 157617, "Name": "Cerro Vega Negra", "Latitude": "-30.900894", "Longitude": "-70.484811", "Elevation": "3,529", "Country": "Chile", "Mountain_Range_GMBA_v2": "Dry Andes", "Purpose": "Operational", "Type": null, "Operating_Organisation": "DGA Chile", "Site_Description_or_Data_Access": "https://dga.mop.gob.cl", "Contact_Email": "jorge.huenante@mop.gov.cl", "Variables_Measured": null, "Record_Start": null, "Record_End": null, "Frequency": null, "Methods_Protocols": null, "Instrumentation": null, "Open_Data": null, "Associated_Publications": null, "Local_Network": null, "Main_Network": "DGA (Chile)", "Comments": null }, "geometry": { "type": "Point", "coordinates": [ -70.484811, -30.900894 ] } },
{ "type": "Feature", "properties": { "GEO_Mountains_v3_ID": 157665, "Name": "Monte Tronador en Casa Pangue", "Latitude": "-41.076158", "Longitude": "-71.877245", "Elevation": "0,430", "Country": "Chile", "Mountain_Range_GMBA_v2": "Patagonian Andes", "Purpose": "Operational", "Type": null, "Operating_Organisation": "DGA Chile", "Site_Description_or_Data_Access": "https://dga.mop.gob.cl", "Contact_Email": "jorge.huenante@mop.gov.cl", "Variables_Measured": null, "Record_Start": null, "Record_End": null, "Frequency": null, "Methods_Protocols": null, "Instrumentation": null, "Open_Data": null, "Associated_Publications": null, "Local_Network": null, "Main_Network": "DGA (Chile)", "Comments": null }, "geometry": { "type": "Point", "coordinates": [ -71.877245, -41.076158 ] } },
{ "type": "Feature", "properties": { "GEO_Mountains_v3_ID": 157666, "Name": "Volcán Yantéles", "Latitude": "-43.446203", "Longitude": "-72.791458", "Elevation": "1,326", "Country": "Chile", "Mountain_Range_GMBA_v2": "Patagonian Andes", "Purpose": "Operational", "Type": null, "Operating_Organisation": "DGA Chile", "Site_Description_or_Data_Access": "https://dga.mop.gob.cl", "Contact_Email": "jorge.huenante@mop.gov.cl", "Variables_Measured": null, "Record_Start": null, "Record_End": null, "Frequency": null, "Methods_Protocols": null, "Instrumentation": null, "Open_Data": null, "Associated_Publications": null, "Local_Network": null, "Main_Network": "DGA (Chile)", "Comments": null }, "geometry": { "type": "Point", "coordinates": [ -72.791458, -43.446203 ] } },
{ "type": "Feature", "properties": { "GEO_Mountains_v3_ID": 157667, "Name": "Cerro Divisadero en El Fraile", "Latitude": "-45.627434", "Longitude": "-72.004219", "Elevation": "1,190", "Country": "Chile", "Mountain_Range_GMBA_v2": "Meseta Patagónica", "Purpose": "Operational", "Type": null, "Operating_Organisation": "DGA Chile", "Site_Description_or_Data_Access": "https://dga.mop.gob.cl", "Contact_Email": "jorge.huenante@mop.gov.cl", "Variables_Measured": null, "Record_Start": null, "Record_End": null, "Frequency": null, "Methods_Protocols": null, "Instrumentation": null, "Open_Data": null, "Associated_Publications": null, "Local_Network": null, "Main_Network": "DGA (Chile)", "Comments": null }, "geometry": { "type": "Point", "coordinates": [ -72.004219, -45.627434 ] } },
{ "type": "Feature", "properties": { "GEO_Mountains_v3_ID": 157632, "Name": "Glaciar Bello Bajo", "Latitude": "-33.525086", "Longitude": "-69.947122", "Elevation": "4,390", "Country": "Chile", "Mountain_Range_GMBA_v2": "Dry Andes", "Purpose": "Operational", "Type": null, "Operating_Organisation": "DGA Chile", "Site_Description_or_Data_Access": "https://dga.mop.gob.cl", "Contact_Email": "jorge.huenante@mop.gov.cl", "Variables_Measured": null, "Record_Start": null, "Record_End": null, "Frequency": null, "Methods_Protocols": null, "Instrumentation": null, "Open_Data": null, "Associated_Publications": null, "Local_Network": null, "Main_Network": "DGA (Chile)", "Comments": null }, "geometry": { "type": "Point", "coordinates": [ -69.947122, -33.525086 ] } },
{ "type": "Feature", "properties": { "GEO_Mountains_v3_ID": 157642, "Name": "Glaciar San Francisco en Aguas Panimávida", "Latitude": "-33.804211", "Longitude": "-70.070805", "Elevation": "2,238", "Country": "Chile", "Mountain_Range_GMBA_v2": "Dry Andes", "Purpose": "Operational", "Type": null, "Operating_Organisation": "DGA Chile", "Site_Description_or_Data_Access": "https://dga.mop.gob.cl", "Contact_Email": "jorge.huenante@mop.gov.cl", "Variables_Measured": null, "Record_Start": null, "Record_End": null, "Frequency": null, "Methods_Protocols": null, "Instrumentation": null, "Open_Data": null, "Associated_Publications": null, "Local_Network": null, "Main_Network": "DGA (Chile)", "Comments": null }, "geometry": { "type": "Point", "coordinates": [ -70.070805, -33.804211 ] } },
{ "type": "Feature", "properties": { "GEO_Mountains_v3_ID": 157670, "Name": "Glaciar Exploradores", "Latitude": "-46.517968", "Longitude": "-73.177208", "Elevation": "0,186", "Country": "Chile", "Mountain_Range_GMBA_v2": "Patagonian Andes", "Purpose": "Operational", "Type": null, "Operating_Organisation": "DGA Chile", "Site_Description_or_Data_Access": "https://dga.mop.gob.cl", "Contact_Email": "jorge.huenante@mop.gov.cl", "Variables_Measured": null, "Record_Start": null, "Record_End": null, "Frequency": null, "Methods_Protocols": null, "Instrumentation": null, "Open_Data": null, "Associated_Publications": null, "Local_Network": null, "Main_Network": "DGA (Chile)", "Comments": null }, "geometry": { "type": "Point", "coordinates": [ -73.177208, -46.517968 ] } },
{ "type": "Feature", "properties": { "GEO_Mountains_v3_ID": 157671, "Name": "Laguna San Rafael", "Latitude": "-46.638393", "Longitude": "-73.872227", "Elevation": "0,003", "Country": "Chile", "Mountain_Range_GMBA_v2": "Patagonian Andes", "Purpose": "Operational", "Type": null, "Operating_Organisation": "DGA Chile", "Site_Description_or_Data_Access": "https://dga.mop.gob.cl", "Contact_Email": "jorge.huenante@mop.gov.cl", "Variables_Measured": null, "Record_Start": null, "Record_End": null, "Frequency": null, "Methods_Protocols": null, "Instrumentation": null, "Open_Data": null, "Associated_Publications": null, "Local_Network": null, "Main_Network": "DGA (Chile)", "Comments": null }, "geometry": { "type": "Point", "coordinates": [ -73.872227, -46.638393 ] } },
{ "type": "Feature", "properties": { "GEO_Mountains_v3_ID": 157679, "Name": "Lago HPN4", "Latitude": "-47.441172", "Longitude": "-73.571413", "Elevation": "0,708", "Country": "Chile", "Mountain_Range_GMBA_v2": "Patagonian Andes", "Purpose": "Operational", "Type": null, "Operating_Organisation": "DGA Chile", "Site_Description_or_Data_Access": "https://dga.mop.gob.cl", "Contact_Email": "jorge.huenante@mop.gov.cl", "Variables_Measured": null, "Record_Start": null, "Record_End": null, "Frequency": null, "Methods_Protocols": null, "Instrumentation": null, "Open_Data": null, "Associated_Publications": null, "Local_Network": null, "Main_Network": "DGA (Chile)", "Comments": null }, "geometry": { "type": "Point", "coordinates": [ -73.571413, -47.441172 ] } },
{ "type": "Feature", "properties": { "GEO_Mountains_v3_ID": 157668, "Name": "Laguna Cerro Castillo", "Latitude": "-46.075641", "Longitude": "-72.185977", "Elevation": "1,278", "Country": "Chile", "Mountain_Range_GMBA_v2": "Patagonian Andes", "Purpose": "Operational", "Type": null, "Operating_Organisation": "DGA Chile", "Site_Description_or_Data_Access": "https://dga.mop.gob.cl", "Contact_Email": "jorge.huenante@mop.gov.cl", "Variables_Measured": null, "Record_Start": null, "Record_End": null, "Frequency": null, "Methods_Protocols": null, "Instrumentation": null, "Open_Data": null, "Associated_Publications": null, "Local_Network": null, "Main_Network": "DGA (Chile)", "Comments": null }, "geometry": { "type": "Point", "coordinates": [ -72.185977, -46.075641 ] } },
{ "type": "Feature", "properties": { "GEO_Mountains_v3_ID": 157669, "Name": "Río Exploradores en Nacimiento", "Latitude": "-46.500924", "Longitude": "-73.150395", "Elevation": "0,144", "Country": "Chile", "Mountain_Range_GMBA_v2": "Patagonian Andes", "Purpose": "Operational", "Type": null, "Operating_Organisation": "DGA Chile", "Site_Description_or_Data_Access": "https://dga.mop.gob.cl", "Contact_Email": "jorge.huenante@mop.gov.cl", "Variables_Measured": null, "Record_Start": null, "Record_End": null, "Frequency": null, "Methods_Protocols": null, "Instrumentation": null, "Open_Data": null, "Associated_Publications": null, "Local_Network": null, "Main_Network": "DGA (Chile)", "Comments": null }, "geometry": { "type": "Point", "coordinates": [ -73.150395, -46.500924 ] } },
{ "type": "Feature", "properties": { "GEO_Mountains_v3_ID": 157672, "Name": "Hielo Norte en Nunatak Chato, Glaciar San Rafael", "Latitude": "-46.714484", "Longitude": "-73.328632", "Elevation": "1,560", "Country": "Chile", "Mountain_Range_GMBA_v2": "Patagonian Andes", "Purpose": "Operational", "Type": null, "Operating_Organisation": "DGA Chile", "Site_Description_or_Data_Access": "https://dga.mop.gob.cl", "Contact_Email": "jorge.huenante@mop.gov.cl", "Variables_Measured": null, "Record_Start": null, "Record_End": null, "Frequency": null, "Methods_Protocols": null, "Instrumentation": null, "Open_Data": null, "Associated_Publications": null, "Local_Network": null, "Main_Network": "DGA (Chile)", "Comments": null }, "geometry": { "type": "Point", "coordinates": [ -73.328632, -46.714484 ] } },
{ "type": "Feature", "properties": { "GEO_Mountains_v3_ID": 157677, "Name": "Río Colonia en Nacimiento", "Latitude": "-47.345001", "Longitude": "-73.125844", "Elevation": "0,164", "Country": "Chile", "Mountain_Range_GMBA_v2": "Patagonian Andes", "Purpose": "Operational", "Type": null, "Operating_Organisation": "DGA Chile", "Site_Description_or_Data_Access": "https://dga.mop.gob.cl", "Contact_Email": "jorge.huenante@mop.gov.cl", "Variables_Measured": null, "Record_Start": null, "Record_End": null, "Frequency": null, "Methods_Protocols": null, "Instrumentation": null, "Open_Data": null, "Associated_Publications": null, "Local_Network": null, "Main_Network": "DGA (Chile)", "Comments": null }, "geometry": { "type": "Point", "coordinates": [ -73.125844, -47.345001 ] } },
{ "type": "Feature", "properties": { "GEO_Mountains_v3_ID": 157678, "Name": "Laguna Steffen N°1", "Latitude": "-47.431402", "Longitude": "-73.747848", "Elevation": "0,361", "Country": "Chile", "Mountain_Range_GMBA_v2": "Patagonian Andes", "Purpose": "Operational", "Type": null, "Operating_Organisation": "DGA Chile", "Site_Description_or_Data_Access": "https://dga.mop.gob.cl", "Contact_Email": "jorge.huenante@mop.gov.cl", "Variables_Measured": null, "Record_Start": null, "Record_End": null, "Frequency": null, "Methods_Protocols": null, "Instrumentation": null, "Open_Data": null, "Associated_Publications": null, "Local_Network": null, "Main_Network": "DGA (Chile)", "Comments": null }, "geometry": { "type": "Point", "coordinates": [ -73.747848, -47.431402 ] } },
{ "type": "Feature", "properties": { "GEO_Mountains_v3_ID": 157680, "Name": "Laguna de Los Témpanos", "Latitude": "-47.454541", "Longitude": "-73.755683", "Elevation": "0,277", "Country": "Chile", "Mountain_Range_GMBA_v2": "Patagonian Andes", "Purpose": "Operational", "Type": null, "Operating_Organisation": "DGA Chile", "Site_Description_or_Data_Access": "https://dga.mop.gob.cl", "Contact_Email": "jorge.huenante@mop.gov.cl", "Variables_Measured": null, "Record_Start": null, "Record_End": null, "Frequency": null, "Methods_Protocols": null, "Instrumentation": null, "Open_Data": null, "Associated_Publications": null, "Local_Network": null, "Main_Network": "DGA (Chile)", "Comments": null }, "geometry": { "type": "Point", "coordinates": [ -73.755683, -47.454541 ] } },
{ "type": "Feature", "properties": { "GEO_Mountains_v3_ID": 157681, "Name": "Río Huemules en Glaciar Steffen", "Latitude": "-47.542456", "Longitude": "-73.673339", "Elevation": "0,024", "Country": "Chile", "Mountain_Range_GMBA_v2": "Patagonian Andes", "Purpose": "Operational", "Type": null, "Operating_Organisation": "DGA Chile", "Site_Description_or_Data_Access": "https://dga.mop.gob.cl", "Contact_Email": "jorge.huenante@mop.gov.cl", "Variables_Measured": null, "Record_Start": null, "Record_End": null, "Frequency": null, "Methods_Protocols": null, "Instrumentation": null, "Open_Data": null, "Associated_Publications": null, "Local_Network": null, "Main_Network": "DGA (Chile)", "Comments": null }, "geometry": { "type": "Point", "coordinates": [ -73.673339, -47.542456 ] } },
{ "type": "Feature", "properties": { "GEO_Mountains_v3_ID": 157682, "Name": "Estero descarga glaciar Calluqueo", "Latitude": "-47.590172", "Longitude": "-72.451244", "Elevation": "0,000", "Country": "Chile", "Mountain_Range_GMBA_v2": "Patagonian Andes", "Purpose": "Operational", "Type": null, "Operating_Organisation": "DGA Chile", "Site_Description_or_Data_Access": "https://dga.mop.gob.cl", "Contact_Email": "jorge.huenante@mop.gov.cl", "Variables_Measured": null, "Record_Start": null, "Record_End": null, "Frequency": null, "Methods_Protocols": null, "Instrumentation": null, "Open_Data": null, "Associated_Publications": null, "Local_Network": null, "Main_Network": "DGA (Chile)", "Comments": null }, "geometry": { "type": "Point", "coordinates": [ -72.451244, -47.590172 ] } },
{ "type": "Feature", "properties": { "GEO_Mountains_v3_ID": 157683, "Name": "Fiordo Jorge Montt", "Latitude": "-48.253592", "Longitude": "-73.459911", "Elevation": "0,193", "Country": "Chile", "Mountain_Range_GMBA_v2": "Patagonian Andes", "Purpose": "Operational", "Type": null, "Operating_Organisation": "DGA Chile", "Site_Description_or_Data_Access": "https://dga.mop.gob.cl", "Contact_Email": "jorge.huenante@mop.gov.cl", "Variables_Measured": null, "Record_Start": null, "Record_End": null, "Frequency": null, "Methods_Protocols": null, "Instrumentation": null, "Open_Data": null, "Associated_Publications": null, "Local_Network": null, "Main_Network": "DGA (Chile)", "Comments": null }, "geometry": { "type": "Point", "coordinates": [ -73.459911, -48.253592 ] } },
{ "type": "Feature", "properties": { "GEO_Mountains_v3_ID": 157660, "Name": "Sierra Velluda", "Latitude": "-37.472564", "Longitude": "-71.435797", "Elevation": "2,702", "Country": "Chile", "Mountain_Range_GMBA_v2": "Patagonian Andes", "Purpose": "Operational", "Type": null, "Operating_Organisation": "DGA Chile", "Site_Description_or_Data_Access": "https://dga.mop.gob.cl", "Contact_Email": "jorge.huenante@mop.gov.cl", "Variables_Measured": null, "Record_Start": null, "Record_End": null, "Frequency": null, "Methods_Protocols": null, "Instrumentation": null, "Open_Data": null, "Associated_Publications": null, "Local_Network": null, "Main_Network": "DGA (Chile)", "Comments": null }, "geometry": { "type": "Point", "coordinates": [ -71.435797, -37.472564 ] } },
{ "type": "Feature", "properties": { "GEO_Mountains_v3_ID": 157661, "Name": "Corralito", "Latitude": "-37.580621", "Longitude": "-71.157568", "Elevation": "1,710", "Country": "Chile", "Mountain_Range_GMBA_v2": "Patagonian Andes", "Purpose": "Operational", "Type": null, "Operating_Organisation": "DGA Chile", "Site_Description_or_Data_Access": "https://dga.mop.gob.cl", "Contact_Email": "jorge.huenante@mop.gov.cl", "Variables_Measured": null, "Record_Start": null, "Record_End": null, "Frequency": null, "Methods_Protocols": null, "Instrumentation": null, "Open_Data": null, "Associated_Publications": null, "Local_Network": null, "Main_Network": "DGA (Chile)", "Comments": null }, "geometry": { "type": "Point", "coordinates": [ -71.157568, -37.580621 ] } },
{ "type": "Feature", "properties": { "GEO_Mountains_v3_ID": 157637, "Name": "Valle Echaurren Norte", "Latitude": "-33.593772", "Longitude": "-70.11028", "Elevation": "2,950", "Country": "Chile", "Mountain_Range_GMBA_v2": "Dry Andes", "Purpose": "Operational", "Type": null, "Operating_Organisation": "DGA Chile", "Site_Description_or_Data_Access": "https://dga.mop.gob.cl", "Contact_Email": "jorge.huenante@mop.gov.cl", "Variables_Measured": null, "Record_Start": null, "Record_End": null, "Frequency": null, "Methods_Protocols": null, "Instrumentation": null, "Open_Data": null, "Associated_Publications": null, "Local_Network": null, "Main_Network": "DGA (Chile)", "Comments": null }, "geometry": { "type": "Point", "coordinates": [ -70.11028, -33.593772 ] } },
{ "type": "Feature", "properties": { "GEO_Mountains_v3_ID": 157638, "Name": "Termas del Plomo", "Latitude": "-33.613797", "Longitude": "-69.906342", "Elevation": "3,027", "Country": "Chile", "Mountain_Range_GMBA_v2": "Dry Andes", "Purpose": "Operational", "Type": null, "Operating_Organisation": "DGA Chile", "Site_Description_or_Data_Access": "https://dga.mop.gob.cl", "Contact_Email": "jorge.huenante@mop.gov.cl", "Variables_Measured": null, "Record_Start": null, "Record_End": null, "Frequency": null, "Methods_Protocols": null, "Instrumentation": null, "Open_Data": null, "Associated_Publications": null, "Local_Network": null, "Main_Network": "DGA (Chile)", "Comments": null }, "geometry": { "type": "Point", "coordinates": [ -69.906342, -33.613797 ] } },
{ "type": "Feature", "properties": { "GEO_Mountains_v3_ID": 157639, "Name": "Laguna Negra", "Latitude": "-33.666847", "Longitude": "-70.107681", "Elevation": "2,785", "Country": "Chile", "Mountain_Range_GMBA_v2": "Dry Andes", "Purpose": "Operational", "Type": null, "Operating_Organisation": "DGA Chile", "Site_Description_or_Data_Access": "https://dga.mop.gob.cl", "Contact_Email": "jorge.huenante@mop.gov.cl", "Variables_Measured": null, "Record_Start": null, "Record_End": null, "Frequency": null, "Methods_Protocols": null, "Instrumentation": null, "Open_Data": null, "Associated_Publications": null, "Local_Network": null, "Main_Network": "DGA (Chile)", "Comments": null }, "geometry": { "type": "Point", "coordinates": [ -70.107681, -33.666847 ] } },
{ "type": "Feature", "properties": { "GEO_Mountains_v3_ID": 157640, "Name": "Glaciar San Francisco", "Latitude": "-33.748872", "Longitude": "-70.074014", "Elevation": "3,460", "Country": "Chile", "Mountain_Range_GMBA_v2": "Dry Andes", "Purpose": "Operational", "Type": null, "Operating_Organisation": "DGA Chile", "Site_Description_or_Data_Access": "https://dga.mop.gob.cl", "Contact_Email": "jorge.huenante@mop.gov.cl", "Variables_Measured": null, "Record_Start": null, "Record_End": null, "Frequency": null, "Methods_Protocols": null, "Instrumentation": null, "Open_Data": null, "Associated_Publications": null, "Local_Network": null, "Main_Network": "DGA (Chile)", "Comments": null }, "geometry": { "type": "Point", "coordinates": [ -70.074014, -33.748872 ] } },
{ "type": "Feature", "properties": { "GEO_Mountains_v3_ID": 157641, "Name": "Estero Morales en Aguas Panimávida", "Latitude": "-33.800662", "Longitude": "-70.073526", "Elevation": "2,240", "Country": "Chile", "Mountain_Range_GMBA_v2": "Dry Andes", "Purpose": "Operational", "Type": null, "Operating_Organisation": "DGA Chile", "Site_Description_or_Data_Access": "https://dga.mop.gob.cl", "Contact_Email": "jorge.huenante@mop.gov.cl", "Variables_Measured": null, "Record_Start": null, "Record_End": null, "Frequency": null, "Methods_Protocols": null, "Instrumentation": null, "Open_Data": null, "Associated_Publications": null, "Local_Network": null, "Main_Network": "DGA (Chile)", "Comments": null }, "geometry": { "type": "Point", "coordinates": [ -70.073526, -33.800662 ] } },
{ "type": "Feature", "properties": { "GEO_Mountains_v3_ID": 157673, "Name": "Hielo Norte en Glaciar San Rafael", "Latitude": "-46.70445", "Longitude": "-73.593612", "Elevation": "1,187", "Country": "Chile", "Mountain_Range_GMBA_v2": "Patagonian Andes", "Purpose": "Operational", "Type": null, "Operating_Organisation": "DGA Chile", "Site_Description_or_Data_Access": "https://dga.mop.gob.cl", "Contact_Email": "jorge.huenante@mop.gov.cl", "Variables_Measured": null, "Record_Start": null, "Record_End": null, "Frequency": null, "Methods_Protocols": null, "Instrumentation": null, "Open_Data": null, "Associated_Publications": null, "Local_Network": null, "Main_Network": "DGA (Chile)", "Comments": null }, "geometry": { "type": "Point", "coordinates": [ -73.593612, -46.70445 ] } },
{ "type": "Feature", "properties": { "GEO_Mountains_v3_ID": 157674, "Name": "Río Nef antes junta Estero El Revalse 1", "Latitude": "-47.139601", "Longitude": "-73.087524", "Elevation": "0,295", "Country": "Chile", "Mountain_Range_GMBA_v2": "Patagonian Andes", "Purpose": "Operational", "Type": null, "Operating_Organisation": "DGA Chile", "Site_Description_or_Data_Access": "https://dga.mop.gob.cl", "Contact_Email": "jorge.huenante@mop.gov.cl", "Variables_Measured": null, "Record_Start": null, "Record_End": null, "Frequency": null, "Methods_Protocols": null, "Instrumentation": null, "Open_Data": null, "Associated_Publications": null, "Local_Network": null, "Main_Network": "DGA (Chile)", "Comments": null }, "geometry": { "type": "Point", "coordinates": [ -73.087524, -47.139601 ] } },
{ "type": "Feature", "properties": { "GEO_Mountains_v3_ID": 157675, "Name": "Río Nef antes junta Estero El Revalse 2", "Latitude": "-47.140002", "Longitude": "-73.090002", "Elevation": "0,295", "Country": "Chile", "Mountain_Range_GMBA_v2": "Patagonian Andes", "Purpose": "Operational", "Type": null, "Operating_Organisation": "DGA Chile", "Site_Description_or_Data_Access": "https://dga.mop.gob.cl", "Contact_Email": "jorge.huenante@mop.gov.cl", "Variables_Measured": null, "Record_Start": null, "Record_End": null, "Frequency": null, "Methods_Protocols": null, "Instrumentation": null, "Open_Data": null, "Associated_Publications": null, "Local_Network": null, "Main_Network": "DGA (Chile)", "Comments": null }, "geometry": { "type": "Point", "coordinates": [ -73.090002, -47.140002 ] } },
{ "type": "Feature", "properties": { "GEO_Mountains_v3_ID": 157676, "Name": "Glaciar Colonia en Lago Cachet 2", "Latitude": "-47.202404", "Longitude": "-73.256112", "Elevation": "0,451", "Country": "Chile", "Mountain_Range_GMBA_v2": "Patagonian Andes", "Purpose": "Operational", "Type": null, "Operating_Organisation": "DGA Chile", "Site_Description_or_Data_Access": "https://dga.mop.gob.cl", "Contact_Email": "jorge.huenante@mop.gov.cl", "Variables_Measured": null, "Record_Start": null, "Record_End": null, "Frequency": null, "Methods_Protocols": null, "Instrumentation": null, "Open_Data": null, "Associated_Publications": null, "Local_Network": null, "Main_Network": "DGA (Chile)", "Comments": null }, "geometry": { "type": "Point", "coordinates": [ -73.256112, -47.202404 ] } },
{ "type": "Feature", "properties": { "GEO_Mountains_v3_ID": 157618, "Name": "El Soldado", "Latitude": "-32.006591", "Longitude": "-70.321313", "Elevation": "3,293", "Country": "Chile", "Mountain_Range_GMBA_v2": "Dry Andes", "Purpose": "Operational", "Type": null, "Operating_Organisation": "DGA Chile", "Site_Description_or_Data_Access": "https://dga.mop.gob.cl", "Contact_Email": "jorge.huenante@mop.gov.cl", "Variables_Measured": null, "Record_Start": null, "Record_End": null, "Frequency": null, "Methods_Protocols": null, "Instrumentation": null, "Open_Data": null, "Associated_Publications": null, "Local_Network": null, "Main_Network": "DGA (Chile)", "Comments": null }, "geometry": { "type": "Point", "coordinates": [ -70.321313, -32.006591 ] } },
{ "type": "Feature", "properties": { "GEO_Mountains_v3_ID": 157630, "Name": "Glaciar Tupungatito Alto", "Latitude": "-33.399727", "Longitude": "-69.809723", "Elevation": "5,500", "Country": "Chile", "Mountain_Range_GMBA_v2": "Dry Andes", "Purpose": "Operational", "Type": null, "Operating_Organisation": "DGA Chile", "Site_Description_or_Data_Access": "https://dga.mop.gob.cl", "Contact_Email": "jorge.huenante@mop.gov.cl", "Variables_Measured": null, "Record_Start": null, "Record_End": null, "Frequency": null, "Methods_Protocols": null, "Instrumentation": null, "Open_Data": null, "Associated_Publications": null, "Local_Network": null, "Main_Network": "DGA (Chile)", "Comments": null }, "geometry": { "type": "Point", "coordinates": [ -69.809723, -33.399727 ] } },
{ "type": "Feature", "properties": { "GEO_Mountains_v3_ID": 157631, "Name": "Glaciar Bello Alto", "Latitude": "-33.514202", "Longitude": "-69.943278", "Elevation": "4,785", "Country": "Chile", "Mountain_Range_GMBA_v2": "Dry Andes", "Purpose": "Operational", "Type": null, "Operating_Organisation": "DGA Chile", "Site_Description_or_Data_Access": "https://dga.mop.gob.cl", "Contact_Email": "jorge.huenante@mop.gov.cl", "Variables_Measured": null, "Record_Start": null, "Record_End": null, "Frequency": null, "Methods_Protocols": null, "Instrumentation": null, "Open_Data": null, "Associated_Publications": null, "Local_Network": null, "Main_Network": "DGA (Chile)", "Comments": null }, "geometry": { "type": "Point", "coordinates": [ -69.943278, -33.514202 ] } },
{ "type": "Feature", "properties": { "GEO_Mountains_v3_ID": 157662, "Name": "Liucura", "Latitude": "-38.65201", "Longitude": "-71.091886", "Elevation": "1,034", "Country": "Chile", "Mountain_Range_GMBA_v2": "Patagonian Andes", "Purpose": "Operational", "Type": null, "Operating_Organisation": "DGA Chile", "Site_Description_or_Data_Access": "https://dga.mop.gob.cl", "Contact_Email": "jorge.huenante@mop.gov.cl", "Variables_Measured": null, "Record_Start": null, "Record_End": null, "Frequency": null, "Methods_Protocols": null, "Instrumentation": null, "Open_Data": null, "Associated_Publications": null, "Local_Network": null, "Main_Network": "DGA (Chile)", "Comments": null }, "geometry": { "type": "Point", "coordinates": [ -71.091886, -38.65201 ] } },
{ "type": "Feature", "properties": { "GEO_Mountains_v3_ID": 157663, "Name": "Volcán Villarrica Pichillancahue", "Latitude": "-39.435025", "Longitude": "-71.875803", "Elevation": "1,800", "Country": "Chile", "Mountain_Range_GMBA_v2": "Patagonian Andes", "Purpose": "Operational", "Type": null, "Operating_Organisation": "DGA Chile", "Site_Description_or_Data_Access": "https://dga.mop.gob.cl", "Contact_Email": "jorge.huenante@mop.gov.cl", "Variables_Measured": null, "Record_Start": null, "Record_End": null, "Frequency": null, "Methods_Protocols": null, "Instrumentation": null, "Open_Data": null, "Associated_Publications": null, "Local_Network": null, "Main_Network": "DGA (Chile)", "Comments": null }, "geometry": { "type": "Point", "coordinates": [ -71.875803, -39.435025 ] } },
{ "type": "Feature", "properties": { "GEO_Mountains_v3_ID": 157664, "Name": "Complejo Volcánico Mocho Choshuenco", "Latitude": "-39.951458", "Longitude": "-72.058674", "Elevation": "1,565", "Country": "Chile", "Mountain_Range_GMBA_v2": "Patagonian Andes", "Purpose": "Operational", "Type": null, "Operating_Organisation": "DGA Chile", "Site_Description_or_Data_Access": "https://dga.mop.gob.cl", "Contact_Email": "jorge.huenante@mop.gov.cl", "Variables_Measured": null, "Record_Start": null, "Record_End": null, "Frequency": null, "Methods_Protocols": null, "Instrumentation": null, "Open_Data": null, "Associated_Publications": null, "Local_Network": null, "Main_Network": "DGA (Chile)", "Comments": null }, "geometry": { "type": "Point", "coordinates": [ -72.058674, -39.951458 ] } },
{ "type": "Feature", "properties": { "GEO_Mountains_v3_ID": 157684, "Name": "Fiordo Témpanos", "Latitude": "-48.70232", "Longitude": "-73.988052", "Elevation": "0,050", "Country": "Chile", "Mountain_Range_GMBA_v2": "Patagonian Andes", "Purpose": "Operational", "Type": null, "Operating_Organisation": "DGA Chile", "Site_Description_or_Data_Access": "https://dga.mop.gob.cl", "Contact_Email": "jorge.huenante@mop.gov.cl", "Variables_Measured": null, "Record_Start": null, "Record_End": null, "Frequency": null, "Methods_Protocols": null, "Instrumentation": null, "Open_Data": null, "Associated_Publications": null, "Local_Network": null, "Main_Network": "DGA (Chile)", "Comments": null }, "geometry": { "type": "Point", "coordinates": [ -73.988052, -48.70232 ] } },
{ "type": "Feature", "properties": { "GEO_Mountains_v3_ID": 157685, "Name": "Hielo Sur en Glaciar Greve Nunatak Occidental", "Latitude": "-48.833064", "Longitude": "-73.723623", "Elevation": "1,040", "Country": "Chile", "Mountain_Range_GMBA_v2": "Patagonian Andes", "Purpose": "Operational", "Type": null, "Operating_Organisation": "DGA Chile", "Site_Description_or_Data_Access": "https://dga.mop.gob.cl", "Contact_Email": "jorge.huenante@mop.gov.cl", "Variables_Measured": null, "Record_Start": null, "Record_End": null, "Frequency": null, "Methods_Protocols": null, "Instrumentation": null, "Open_Data": null, "Associated_Publications": null, "Local_Network": null, "Main_Network": "DGA (Chile)", "Comments": null }, "geometry": { "type": "Point", "coordinates": [ -73.723623, -48.833064 ] } },
{ "type": "Feature", "properties": { "GEO_Mountains_v3_ID": 157689, "Name": "Fiordo Stange", "Latitude": "-49.719631", "Longitude": "-74.72533", "Elevation": "0,052", "Country": "Chile", "Mountain_Range_GMBA_v2": "Patagonian Andes", "Purpose": "Operational", "Type": null, "Operating_Organisation": "DGA Chile", "Site_Description_or_Data_Access": "https://dga.mop.gob.cl", "Contact_Email": "jorge.huenante@mop.gov.cl", "Variables_Measured": null, "Record_Start": null, "Record_End": null, "Frequency": null, "Methods_Protocols": null, "Instrumentation": null, "Open_Data": null, "Associated_Publications": null, "Local_Network": null, "Main_Network": "DGA (Chile)", "Comments": null }, "geometry": { "type": "Point", "coordinates": [ -74.72533, -49.719631 ] } },
{ "type": "Feature", "properties": { "GEO_Mountains_v3_ID": 157686, "Name": "Hielo Sur en Glaciar O'Higgins", "Latitude": "-48.924483", "Longitude": "-73.273825", "Elevation": "1,234", "Country": "Chile", "Mountain_Range_GMBA_v2": "Patagonian Andes", "Purpose": "Operational", "Type": null, "Operating_Organisation": "DGA Chile", "Site_Description_or_Data_Access": "https://dga.mop.gob.cl", "Contact_Email": "jorge.huenante@mop.gov.cl", "Variables_Measured": null, "Record_Start": null, "Record_End": null, "Frequency": null, "Methods_Protocols": null, "Instrumentation": null, "Open_Data": null, "Associated_Publications": null, "Local_Network": null, "Main_Network": "DGA (Chile)", "Comments": null }, "geometry": { "type": "Point", "coordinates": [ -73.273825, -48.924483 ] } },
{ "type": "Feature", "properties": { "GEO_Mountains_v3_ID": 157687, "Name": "Lago O'Higgins en Punta Nahuelcar", "Latitude": "-48.931008", "Longitude": "-73.134807", "Elevation": "0,276", "Country": "Chile", "Mountain_Range_GMBA_v2": "Patagonian Andes", "Purpose": "Operational", "Type": null, "Operating_Organisation": "DGA Chile", "Site_Description_or_Data_Access": "https://dga.mop.gob.cl", "Contact_Email": "jorge.huenante@mop.gov.cl", "Variables_Measured": null, "Record_Start": null, "Record_End": null, "Frequency": null, "Methods_Protocols": null, "Instrumentation": null, "Open_Data": null, "Associated_Publications": null, "Local_Network": null, "Main_Network": "DGA (Chile)", "Comments": null }, "geometry": { "type": "Point", "coordinates": [ -73.134807, -48.931008 ] } },
{ "type": "Feature", "properties": { "GEO_Mountains_v3_ID": 157688, "Name": "Glaciar Chico en Campo de Hielo Sur", "Latitude": "-49.155815", "Longitude": "-73.138735", "Elevation": "1,611", "Country": "Chile", "Mountain_Range_GMBA_v2": "Patagonian Andes", "Purpose": "Operational", "Type": null, "Operating_Organisation": "DGA Chile", "Site_Description_or_Data_Access": "https://dga.mop.gob.cl", "Contact_Email": "jorge.huenante@mop.gov.cl", "Variables_Measured": null, "Record_Start": null, "Record_End": null, "Frequency": null, "Methods_Protocols": null, "Instrumentation": null, "Open_Data": null, "Associated_Publications": null, "Local_Network": null, "Main_Network": "DGA (Chile)", "Comments": null }, "geometry": { "type": "Point", "coordinates": [ -73.138735, -49.155815 ] } },
{ "type": "Feature", "properties": { "GEO_Mountains_v3_ID": 157690, "Name": "Glaciar García (ex Fiordo Andrew)", "Latitude": "-50.377644", "Longitude": "-73.560337", "Elevation": "0,010", "Country": "Chile", "Mountain_Range_GMBA_v2": "Patagonian Andes", "Purpose": "Operational", "Type": null, "Operating_Organisation": "DGA Chile", "Site_Description_or_Data_Access": "https://dga.mop.gob.cl", "Contact_Email": "jorge.huenante@mop.gov.cl", "Variables_Measured": null, "Record_Start": null, "Record_End": null, "Frequency": null, "Methods_Protocols": null, "Instrumentation": null, "Open_Data": null, "Associated_Publications": null, "Local_Network": null, "Main_Network": "DGA (Chile)", "Comments": null }, "geometry": { "type": "Point", "coordinates": [ -73.560337, -50.377644 ] } },
{ "type": "Feature", "properties": { "GEO_Mountains_v3_ID": 157691, "Name": "Fiordo Amalia", "Latitude": "-50.96242", "Longitude": "-73.768376", "Elevation": "0,045", "Country": "Chile", "Mountain_Range_GMBA_v2": "Patagonian Andes", "Purpose": "Operational", "Type": null, "Operating_Organisation": "DGA Chile", "Site_Description_or_Data_Access": "https://dga.mop.gob.cl", "Contact_Email": "jorge.huenante@mop.gov.cl", "Variables_Measured": null, "Record_Start": null, "Record_End": null, "Frequency": null, "Methods_Protocols": null, "Instrumentation": null, "Open_Data": null, "Associated_Publications": null, "Local_Network": null, "Main_Network": "DGA (Chile)", "Comments": null }, "geometry": { "type": "Point", "coordinates": [ -73.768376, -50.96242 ] } },
{ "type": "Feature", "properties": { "GEO_Mountains_v3_ID": 157692, "Name": "Glaciar Tyndall en Campamento Zapata", "Latitude": "-51.117111", "Longitude": "-73.282412", "Elevation": "0,350", "Country": "Chile", "Mountain_Range_GMBA_v2": "Patagonian Andes", "Purpose": "Operational", "Type": null, "Operating_Organisation": "DGA Chile", "Site_Description_or_Data_Access": "https://dga.mop.gob.cl", "Contact_Email": "jorge.huenante@mop.gov.cl", "Variables_Measured": null, "Record_Start": null, "Record_End": null, "Frequency": null, "Methods_Protocols": null, "Instrumentation": null, "Open_Data": null, "Associated_Publications": null, "Local_Network": null, "Main_Network": "DGA (Chile)", "Comments": null }, "geometry": { "type": "Point", "coordinates": [ -73.282412, -51.117111 ] } },
{ "type": "Feature", "properties": { "GEO_Mountains_v3_ID": 157693, "Name": "Glaciar Tyndall", "Latitude": "-51.147097", "Longitude": "-73.307936", "Elevation": "0,560", "Country": "Chile", "Mountain_Range_GMBA_v2": "Patagonian Andes", "Purpose": "Operational", "Type": null, "Operating_Organisation": "DGA Chile", "Site_Description_or_Data_Access": "https://dga.mop.gob.cl", "Contact_Email": "jorge.huenante@mop.gov.cl", "Variables_Measured": null, "Record_Start": null, "Record_End": null, "Frequency": null, "Methods_Protocols": null, "Instrumentation": null, "Open_Data": null, "Associated_Publications": null, "Local_Network": null, "Main_Network": "DGA (Chile)", "Comments": null }, "geometry": { "type": "Point", "coordinates": [ -73.307936, -51.147097 ] } },
{ "type": "Feature", "properties": { "GEO_Mountains_v3_ID": 157694, "Name": "Glaciar Bernal", "Latitude": "-51.871949", "Longitude": "-73.315072", "Elevation": "0,005", "Country": "Chile", "Mountain_Range_GMBA_v2": "Patagonian Andes", "Purpose": "Operational", "Type": null, "Operating_Organisation": "DGA Chile", "Site_Description_or_Data_Access": "https://dga.mop.gob.cl", "Contact_Email": "jorge.huenante@mop.gov.cl", "Variables_Measured": null, "Record_Start": null, "Record_End": null, "Frequency": null, "Methods_Protocols": null, "Instrumentation": null, "Open_Data": null, "Associated_Publications": null, "Local_Network": null, "Main_Network": "DGA (Chile)", "Comments": null }, "geometry": { "type": "Point", "coordinates": [ -73.315072, -51.871949 ] } },
{ "type": "Feature", "properties": { "GEO_Mountains_v3_ID": 157695, "Name": "Glaciar Snoring", "Latitude": "-53.723333", "Longitude": "-72.608343", "Elevation": "0,000", "Country": "Chile", "Mountain_Range_GMBA_v2": "Patagonian Andes", "Purpose": "Operational", "Type": null, "Operating_Organisation": "DGA Chile", "Site_Description_or_Data_Access": "https://dga.mop.gob.cl", "Contact_Email": "jorge.huenante@mop.gov.cl", "Variables_Measured": null, "Record_Start": null, "Record_End": null, "Frequency": null, "Methods_Protocols": null, "Instrumentation": null, "Open_Data": null, "Associated_Publications": null, "Local_Network": null, "Main_Network": "DGA (Chile)", "Comments": null }, "geometry": { "type": "Point", "coordinates": [ -72.608343, -53.723333 ] } },
{ "type": "Feature", "properties": { "GEO_Mountains_v3_ID": 157696, "Name": "Glaciar Fouque", "Latitude": "-55.13608", "Longitude": "-69.538779", "Elevation": "0,050", "Country": "Chile", "Mountain_Range_GMBA_v2": "Patagonian Andes", "Purpose": "Operational", "Type": null, "Operating_Organisation": "DGA Chile", "Site_Description_or_Data_Access": "https://dga.mop.gob.cl", "Contact_Email": "jorge.huenante@mop.gov.cl", "Variables_Measured": null, "Record_Start": null, "Record_End": null, "Frequency": null, "Methods_Protocols": null, "Instrumentation": null, "Open_Data": null, "Associated_Publications": null, "Local_Network": null, "Main_Network": "DGA (Chile)", "Comments": null }, "geometry": { "type": "Point", "coordinates": [ -69.538779, -55.13608 ] } },
{ "type": "Feature", "properties": { "GEO_Mountains_v3_ID": 157697, "Name": "Los Azules", "Latitude": "-31.230285", "Longitude": "-70.535565", "Elevation": "3,408", "Country": "Chile", "Mountain_Range_GMBA_v2": "Dry Andes", "Purpose": "Operational", "Type": null, "Operating_Organisation": "DGA Chile", "Site_Description_or_Data_Access": "https://dga.mop.gob.cl", "Contact_Email": "jorge.huenante@mop.gov.cl", "Variables_Measured": null, "Record_Start": null, "Record_End": null, "Frequency": null, "Methods_Protocols": null, "Instrumentation": null, "Open_Data": null, "Associated_Publications": null, "Local_Network": null, "Main_Network": "DGA (Chile)", "Comments": null }, "geometry": { "type": "Point", "coordinates": [ -70.535565, -31.230285 ] } }
]
}
